[{"OBJECT_NAME":"STARLINK-3508","OBJECT_ID":"2022-022L","EPOCH":"2026-03-09T01:29:52.196352","MEAN_MOTION":15.08834436,"ECCENTRICITY":0.00014249,"INCLINATION":53.2183,"RA_OF_ASC_NODE":11.9375,"ARG_OF_PERICENTER":91.4978,"MEAN_ANOMALY":268.6178,"EPHEMERIS_TYPE":0,"CLASSIFICATION_TYPE":"U","NORAD_CAT_ID":51862,"ELEMENT_SET_NO":999,"REV_AT_EPOCH":22307,"BSTAR":7.1122241e-5,"MEAN_MOTION_DOT":8.44e-6,"MEAN_MOTION_DDOT":0},{"OBJECT_NAME":"JILIN-1 KUANFU 02A","OBJECT_ID":"2023-127A","EPOCH":"2026-03-09T22:42:00.221760","MEAN_MOTION":15.09948681,"ECCENTRICITY":0.0009702,"INCLINATION":97.5529,"RA_OF_ASC_NODE":164.1218,"ARG_OF_PERICENTER":318.2814,"MEAN_ANOMALY":41.7675,"EPHEMERIS_TYPE":0,"CLASSIFICATION_TYPE":"U","NORAD_CAT_ID":57696,"ELEMENT_SET_NO":999,"REV_AT_EPOCH":14065,"BSTAR":0.00045097028,"MEAN_MOTION_DOT":7.263e-5,"MEAN_MOTION_DDOT":0}]
